GLOBALSTAR M045         
1 25676U 99019A   24125.45196317 -.00000121  00000+0 -24470-3 0  9999
2 25676  51.9996  30.2243 0001020  99.6874  71.7306 12.27036128143450
GLOBALSTAR M019         
1 25677U 99019B   24125.18850615 -.00000031  00000+0  61531-3 0  9996
2 25677  51.9845 132.5668 0000993 219.2848 220.1258 12.13854108135661
GLOBALSTAR M044         
1 25678U 99019C   24125.22957502 -.00000062  00000+0  30574-3 0  9992
2 25678  51.9997  32.6503 0006279 336.4684 191.9236 11.90231837122604
GLOBALSTAR M042         
1 25679U 99019D   24124.72879895 -.00000081  00000+0  10928-3 0  9997
2 25679  51.9984 126.8419 0002905 174.1986 356.9306 12.22060885135195
GLOBALSTAR M025         
1 25770U 99031A   24124.96980609 -.00000064  00000+0  10161-3 0  9995
2 25770  51.9852  27.2455 0001255 159.9793 284.7285 11.22550558435758
GLOBALSTAR M049         
1 25771U 99031B   24124.93611189  .00000011  00000+0  26305-2 0  9994
2 25771  51.9904  41.5189 0003266  47.3616 312.7455 11.12104563 71890
GLOBALSTAR M047         
1 25772U 99031C   24124.57719425 -.00000076  00000+0 -17240-3 0  9999
2 25772  51.9829  78.4334 0016357 280.6744  79.2220 11.31920326424720
GLOBALSTAR M052         
1 25773U 99031D   24124.48419626 -.00000019  00000+0  15846-2 0  9995
2 25773  51.9828 156.9835 0002913 215.5217 293.9763 11.15050774432801
